0 FENGYUN 1C DEB
1 30683U 99025AQR 13282.51272152  .00001660  00000-0  13321-2 0  5672
2 30683 099.1643 221.1613 0167361 345.8577 080.6584 13.85783333337315
0 FENGYUN 1C DEB
1 30683U 99025AQR 13283.52067611  .00001578  00000-0  12682-2 0  5684
2 30683 099.1643 222.1477 0167272 343.1833 069.1228 13.85786605337458
0 FENGYUN 1C DEB
1 30683U 99025AQR 13285.82495188  .00001503  00000-0  12098-2 0  5693
2 30683 099.1650 224.4031 0167093 337.0378 044.7342 13.85793397337771
0 FENGYUN 1C DEB
1 30683U 99025AQR 13287.07429416  .00001700  00000-0  13646-2 0  5704
2 30683 099.1653 225.6258 0166967 333.7042 157.5081 13.85797631337945
0 FENGYUN 1C DEB
1 30683U 99025AQR 13288.30627096  .00002230  00000-0  17785-2 0  5713
2 30683 099.1656 226.8315 0166851 330.4172 183.6677 13.85803842338118
0 FENGYUN 1C DEB
1 30683U 99025AQR 13289.31675469  .00001777  00000-0  14244-2 0  5725
2 30683 099.1657 227.8205 0166731 327.7238 184.8445 13.85809350338258
0 FENGYUN 1C DEB
1 30683U 99025AQR 13290.32787611  .00002316  00000-0  18461-2 0  5737
2 30683 099.1656 228.8092 0166819 324.9799 189.2760 13.85811306338398
0 FENGYUN 1C DEB
1 30683U 99025AQR 13291.34108053  .00002249  00000-0  17939-2 0  5742
2 30683 099.1660 229.8010 0166723 322.2783 204.0619 13.85815470338533
0 FENGYUN 1C DEB
1 30683U 99025AQR 13292.35009308  .00002193  00000-0  17497-2 0  5755
2 30683 099.1663 230.7886 0166599 319.5916 197.9442 13.85819788338671
0 FENGYUN 1C DEB
1 30683U 99025AQR 13293.76873465  .00002246  00000-0  17913-2 0  5767
2 30683 099.1664 232.1777 0166497 315.7759 075.5044 13.85826515338874
0 FENGYUN 1C DEB
1 30683U 99025AQR 13294.77946009  .00002420  00000-0  19274-2 0  5771
2 30683 099.1662 233.1670 0166402 313.0615 077.9967 13.85830899339010
0 FENGYUN 1C DEB
1 30683U 99025AQR 13295.79452556  .00002458  00000-0  19578-2 0  5782
2 30683 099.1663 234.1610 0166303 310.3349 102.1593 13.85834668339159
